NORAD_CAT_ID,OBJECT_NAME,OBJECT_TYPE,EPOCH,MEAN_MOTION,ECCENTRICITY,INCLINATION,RA_OF_ASC_NODE,ARG_OF_PERICENTER,MEAN_ANOMALY,BSTAR,MEAN_MOTION_DOT,MEAN_MOTION_DDOT,TLE_LINE0,TLE_LINE1,TLE_LINE2,SEMIMAJOR_AXIS,PERIOD,APOGEE,PERIGEE,DECAYED
52664.0,STARLINK-4070,PAYLOAD,2024-01-07 12:21:50,15.08841218,0.0001361,53.2176,110.3292,105.3611,254.7532,3.7971e-05,3.16e-06,0.0,0 STARLINK-4070,1 52664U 22053J   24007.51516885  .00000316  00000-0  37971-4 0  9998,2 52664  53.2176 110.3292 0001361 105.3611 254.7532 15.08841218 91450,6917.877,95.437,540.683,538.8,0.0
52664.0,STARLINK-4070,PAYLOAD,2024-01-08 13:48:00,15.08845564,0.0001263,53.2172,105.5739,90.4034,269.7103,2.0978e-05,4.6e-07,0.0,0 STARLINK-4070,1 52664U 22053J   24008.57500769  .00000046  00000-0  20978-4 0  9998,2 52664  53.2172 105.5739 0001263  90.4034 269.7103 15.08845564 91618,6917.863,95.437,540.602,538.855,0.0
52664.0,STARLINK-4070,PAYLOAD,2024-01-09 13:38:47,15.08841365,0.000143,53.2175,101.1143,74.7807,285.3343,0.00015353,2.156e-05,0.0,0 STARLINK-4070,1 52664U 22053J   24009.56860753  .00002156  00000-0  15353-3 0  9994,2 52664  53.2175 101.1143 0001430  74.7807 285.3343 15.08841365 91762,6917.876,95.437,540.73,538.752,0.0
52664.0,STARLINK-4070,PAYLOAD,2024-01-09 15:14:10,15.0882586,0.0001332,53.2176,100.8153,122.4328,237.6793,0.00041483,6.318e-05,0.0,0 STARLINK-4070,1 52664U 22053J   24009.63484629  .00006318  00000-0  41483-3 0  9993,2 52664  53.2176 100.8153 0001332 122.4328 237.6793 15.08825860 91772,6917.924,95.438,540.71,538.867,0.0
52664.0,STARLINK-4070,PAYLOAD,2024-01-10 10:18:48,15.0884313,0.0001302,53.2175,97.2473,81.5297,278.5842,3.1957e-05,2.21e-06,0.0,0 STARLINK-4070,1 52664U 22053J   24010.42972799  .00000221  00000-0  31957-4 0  9995,2 52664  53.2175  97.2473 0001302  81.5297 278.5842 15.08843130 91894,6917.871,95.437,540.637,538.835,0.0
52664.0,STARLINK-4070,PAYLOAD,2024-01-10 15:04:57,15.08851757,0.0001427,53.2178,96.3513,105.3517,254.7632,8.5857e-05,1.079e-05,0.0,0 STARLINK-4070,1 52664U 22053J   24010.62843985  .00001079  00000-0  85857-4 0  9991,2 52664  53.2178  96.3513 0001427 105.3517 254.7632 15.08851757 91921,6917.844,95.437,540.697,538.722,0.0
52664.0,STARLINK-4070,PAYLOAD,2024-01-11 11:44:58,15.08847408,0.0001636,53.2162,92.4914,82.862,277.2558,-6.3564e-07,-2.98e-06,0.0,0 STARLINK-4070,1 52664U 22053J   24011.48956496 -.00000298  00000-0 -63564-6 0  9995,2 52664  53.2162  92.4914 0001636  82.8620 277.2558 15.08847408 92052,6917.858,95.437,540.855,538.591,0.0
52664.0,STARLINK-4070,PAYLOAD,2024-01-12 10:00:22,15.08840078,0.0001459,53.2178,88.3245,97.0657,263.0501,-6.1999e-05,-1.275e-05,0.0,0 STARLINK-4070,1 52664U 22053J   24012.41693193 -.00001275  00000-0 -61999-4 0  9995,2 52664  53.2178  88.3245 0001459  97.0657 263.0501 15.08840078 92193,6917.88,95.438,540.754,538.736,0.0
52664.0,STARLINK-4070,PAYLOAD,2024-01-13 09:51:10,15.0883972,0.0001431,53.2174,83.8661,91.7013,268.4143,1.7637e-05,-7e-08,0.0,0 STARLINK-4070,1 52664U 22053J   24013.41053372 -.00000007  00000-0  17637-4 0  9996,2 52664  53.2174  83.8661 0001431  91.7013 268.4143 15.08839720 92348,6917.881,95.438,540.736,538.756,0.0
52664.0,STARLINK-4070,PAYLOAD,2024-01-14 04:55:48,15.08833453,0.0001452,53.2173,80.2981,88.4025,271.7133,9.6606e-05,1.25e-05,0.0,0 STARLINK-4070,1 52664U 22053J   24014.20541848  .00001250  00000-0  96606-4 0  9997,2 52664  53.2173  80.2981 0001452  88.4025 271.7133 15.08833453 92468,6917.9,95.438,540.77,538.761,0.0
52664.0,STARLINK-4070,PAYLOAD,2024-01-14 09:41:57,15.08836057,0.0001447,53.2174,79.4063,85.2904,274.8253,0.00011451,1.535e-05,0.0,0 STARLINK-4070,1 52664U 22053J   24014.40413752  .00001535  00000-0  11451-3 0  9991,2 52664  53.2174  79.4063 0001447  85.2904 274.8253 15.08836057 92498,6917.892,95.438,540.758,538.756,0.0
52664.0,STARLINK-4070,PAYLOAD,2024-01-15 09:32:44,15.08843136,0.0001478,53.2175,74.9455,84.4498,275.6663,9.0383e-05,1.151e-05,0.0,0 STARLINK-4070,1 52664U 22053J   24015.39773560  .00001151  00000-0  90383-4 0  9992,2 52664  53.2175  74.9455 0001478  84.4498 275.6663 15.08843136 92644,6917.871,95.437,540.758,538.713,0.0
52664.0,STARLINK-4070,PAYLOAD,2024-01-16 03:02:00,15.08823078,0.0001397,53.2172,71.6762,58.2739,301.8389,-9.7159e-05,-1.833e-05,0.0,0 STARLINK-4070,1 52664U 22053J   24016.12639576 -.00001833  00000-0 -97159-4 0  9999,2 52664  53.2172  71.6762 0001397  58.2739 301.8389 15.08823078 92755,6917.932,95.439,540.764,538.831,0.0
52664.0,STARLINK-4070,PAYLOAD,2024-01-16 10:58:56,15.08822011,0.0001383,53.2177,70.1884,83.0684,277.0465,-0.00010135,-1.9e-05,0.0,0 STARLINK-4070,1 52664U 22053J   24016.45759920 -.00001900  00000-0 -10135-3 0  9994,2 52664  53.2177  70.1884 0001383  83.0684 277.0465 15.08822011 92800,6917.935,95.439,540.757,538.844,0.0
52664.0,STARLINK-4070,PAYLOAD,2024-01-16 23:42:00,15.0883372,0.0001524,53.2196,67.81,104.1527,255.9635,5.298e-05,5.55e-06,0.0,0 STARLINK-4070,1 52664U 22053J   24016.98750831  .00000555  00000-0  52980-4 0  9992,2 52664  53.2196  67.8100 0001524 104.1527 255.9635 15.08833720 92884,6917.9,95.438,540.819,538.71,0.0
52664.0,STARLINK-4070,PAYLOAD,2024-01-17 10:49:41,15.08855411,0.0001667,53.2186,65.7325,77.2593,282.8585,0.00026383,3.915e-05,0.0,0 STARLINK-4070,1 52664U 22053J   24017.45117341  .00003915  00000-0  26383-3 0  9998,2 52664  53.2186  65.7325 0001667  77.2593 282.8585 15.08855411 92952,6917.833,95.437,540.851,538.545,0.0
52664.0,STARLINK-4070,PAYLOAD,2024-01-17 23:32:47,15.08840532,0.0001381,53.2184,63.3515,92.7728,267.3422,0.00030328,4.542e-05,0.0,0 STARLINK-4070,1 52664U 22053J   24017.98110428  .00004542  00000-0  30328-3 0  9996,2 52664  53.2184  63.3515 0001381  92.7728 267.3422 15.08840532 93036,6917.879,95.438,540.699,538.788,0.0
52664.0,STARLINK-4070,PAYLOAD,2024-01-18 12:15:52,15.08845114,0.000202,53.2177,60.9671,125.0998,235.0183,0.00025458,3.766e-05,0.0,0 STARLINK-4070,1 52664U 22053J   24018.51102114  .00003766  00000-0  25458-3 0  9994,2 52664  53.2177  60.9671 0002020 125.0998 235.0183 15.08845114 93110,6917.865,95.437,541.127,538.332,0.0
52664.0,STARLINK-4070,PAYLOAD,2024-01-18 21:48:11,15.08845318,0.0002426,53.2175,59.193,85.3182,274.8087,0.00010687,1.413e-05,0.0,0 STARLINK-4070,1 52664U 22053J   24018.90846481  .00001413  00000-0  10687-3 0  9994,2 52664  53.2175  59.1930 0002426  85.3182 274.8087 15.08845318 93175,6917.864,95.437,541.407,538.051,0.0
52664.0,STARLINK-4070,PAYLOAD,2024-01-19 02:34:20,15.08845379,0.0002087,53.2173,58.2989,78.0205,282.1021,-3.6762e-05,-8.73e-06,0.0,0 STARLINK-4070,1 52664U 22053J   24019.10718425 -.00000873  00000-0 -36762-4 0  9997,2 52664  53.2173  58.2989 0002087  78.0205 282.1021 15.08845379 93206,6917.864,95.437,541.173,538.285,0.0
52664.0,STARLINK-4070,PAYLOAD,2024-01-19 08:55:53,15.08845324,0.0001839,53.218,57.1083,89.6746,270.4457,2.1218e-05,5e-07,0.0,0 STARLINK-4070,1 52664U 22053J   24019.37214416  .00000050  00000-0  21218-4 0  9992,2 52664  53.2180  57.1083 0001839  89.6746 270.4457 15.08845324 93246,6917.864,95.437,541.001,538.457,0.0
52664.0,STARLINK-4070,PAYLOAD,2024-01-20 02:25:08,15.0884009,0.000189,53.2179,53.8374,83.7391,276.3816,0.00013691,1.891e-05,0.0,0 STARLINK-4070,1 52664U 22053J   24020.10078733  .00001891  00000-0  13691-3 0  9994,2 52664  53.2179  53.8374 0001890  83.7391 276.3816 15.08840090 93359,6917.88,95.438,541.053,538.438,0.0
52664.0,STARLINK-4070,PAYLOAD,2024-01-20 08:46:40,15.08840345,0.0001934,53.2189,52.6462,105.3028,254.8178,0.00015108,2.117e-05,0.0,0 STARLINK-4070,1 52664U 22053J   24020.36574670  .00002117  00000-0  15108-3 0  9990,2 52664  53.2189  52.6462 0001934 105.3028 254.8178 15.08840345 93391,6917.879,95.438,541.082,538.406,0.0
52664.0,STARLINK-4070,PAYLOAD,2024-01-21 05:26:41,15.08840341,0.0001735,53.217,48.7789,96.7675,263.3515,0.00015884,2.241e-05,0.0,0 STARLINK-4070,1 52664U 22053J   24021.22686782  .00002241  00000-0  15884-3 0  9993,2 52664  53.2170  48.7789 0001735  96.7675 263.3515 15.08840341 93520,6917.879,95.438,540.945,538.544,0.0
52664.0,STARLINK-4070,PAYLOAD,2024-01-21 08:37:27,15.08844025,0.0001764,53.2173,48.1847,97.6203,262.499,0.00019744,2.856e-05,0.0,0 STARLINK-4070,1 52664U 22053J   24021.35934601  .00002856  00000-0  19744-3 0  9994,2 52664  53.2173  48.1847 0001764  97.6203 262.4990 15.08844025 93543,6917.868,95.437,540.953,538.513,0.0
52664.0,STARLINK-4070,PAYLOAD,2024-01-22 02:06:42,15.08833483,0.0001718,53.2172,44.9117,95.2415,264.8773,-4.9786e-05,-1.08e-05,0.0,0 STARLINK-4070,1 52664U 22053J   24022.08799072 -.00001080  00000-0 -49786-4 0  9996,2 52664  53.2172  44.9117 0001718  95.2415 264.8773 15.08833483 93657,6917.9,95.438,540.954,538.577,0.0
52664.0,STARLINK-4070,PAYLOAD,2024-01-22 06:52:51,15.08836418,0.000162,53.2175,44.0192,90.148,269.9698,3.3315e-05,2.42e-06,0.0,0 STARLINK-4070,1 52664U 22053J   24022.28671279  .00000242  00000-0  33315-4 0  9994,2 52664  53.2175  44.0192 0001620  90.1480 269.9698 15.08836418 93688,6917.891,95.438,540.877,538.636,0.0
52664.0,STARLINK-4070,PAYLOAD,2024-01-23 06:43:38,15.08840063,0.0001592,53.2176,39.559,87.1133,273.0042,9.7531e-05,1.265e-05,0.0,0 STARLINK-4070,1 52664U 22053J   24023.28031141  .00001265  00000-0  97531-4 0  9999,2 52664  53.2176  39.5590 0001592  87.1133 273.0042 15.08840063 93836,6917.88,95.438,540.847,538.644,0.0
52664.0,STARLINK-4070,PAYLOAD,2024-01-23 08:19:01,15.08843501,0.0001576,53.2177,39.2622,77.3171,282.7998,0.00011535,1.548e-05,0.0,0 STARLINK-4070,1 52664U 22053J   24023.34654942  .00001548  00000-0  11535-3 0  9999,2 52664  53.2177  39.2622 0001576  77.3171 282.7998 15.08843501 93843,6917.87,95.437,540.825,538.644,0.0
52664.0,STARLINK-4070,PAYLOAD,2024-01-24 08:09:49,15.08838208,0.0001707,53.218,34.8021,70.0027,290.1149,0.00010996,1.462e-05,0.0,0 STARLINK-4070,1 52664U 22053J   24024.34015570  .00001462  00000-0  10996-3 0  9993,2 52664  53.2180  34.8021 0001707  70.0027 290.1149 15.08838208 93992,6917.886,95.438,540.932,538.57,0.0
